{
  "type": "FeatureCollection",
  "name": "flood_large_inundation",
  "crs": {
    "type": "name",
    "properties": {
      "name": "urn:ogc:def:crs:OGC:1.3:CRS84"
    }
  },
  "features": [
    {
      "type": "Feature",
      "properties": {
        "id": "flood_zone_2",
        "name": "大洪水淹没区",
        "waterLevel": 15,
        "maxDepth": 8,
        "area_sqm": 1280000,
        "severity": "medium"
      },
      "geometry": {
        "type": "Polygon",
        "coordinates": [[
          [82.40, 40.60],
          [82.60, 40.60],
          [82.60, 40.80],
          [82.40, 40.80],
          [82.40, 40.60]
        ]]
      }
    }
  ]
}
