{
  "type": "FeatureCollection",
  "name": "flood_mild_inundation",
  "crs": {
    "type": "name",
    "properties": {
      "name": "urn:ogc:def:crs:OGC:1.3:CRS84"
    }
  },
  "features": [
    {
      "type": "Feature",
      "properties": {
        "id": "flood_zone_1",
        "name": "中小洪水淹没区",
        "waterLevel": 5,
        "maxDepth": 2.5,
        "area_sqm": 450000,
        "severity": "mild"
      },
      "geometry": {
        "type": "Polygon",
        "coordinates": [[
          [79.55, 38.05],
          [79.65, 38.05],
          [79.65, 38.15],
          [79.55, 38.15],
          [79.55, 38.05]
        ]]
      }
    }
  ]
}
